NORAD_CAT_ID,OBJECT_NAME,OBJECT_TYPE,EPOCH,MEAN_MOTION,ECCENTRICITY,INCLINATION,RA_OF_ASC_NODE,ARG_OF_PERICENTER,MEAN_ANOMALY,BSTAR,MEAN_MOTION_DOT,MEAN_MOTION_DDOT,TLE_LINE0,TLE_LINE1,TLE_LINE2,SEMIMAJOR_AXIS,PERIOD,APOGEE,PERIGEE,DECAYED
49177.0,STARLINK-3103,PAYLOAD,2023-02-27 10:40:38,14.98347875,0.0003001,70.0005,163.6932,262.7965,97.2853,0.00055296,6.514e-05,0.0,0 STARLINK-3103,1 49177U 21082AZ  23058.44488487  .00006514  00000-0  55296-3 0  9992,2 49177  70.0005 163.6932 0003001 262.7965  97.2853 14.98347875 82452,6950.138,96.106,574.088,569.917,0.0
49177.0,STARLINK-3103,PAYLOAD,2023-02-27 15:29:02,14.98343728,0.0002605,70.0014,163.1886,253.8469,106.2404,0.00031752,3.699e-05,0.0,0 STARLINK-3103,1 49177U 21082AZ  23058.64516347  .00003699  00000-0  31752-3 0  9993,2 49177  70.0014 163.1886 0002605 253.8469 106.2404 14.98343728 82483,6950.15,96.106,573.826,570.205,0.0
49177.0,STARLINK-3103,PAYLOAD,2023-02-28 13:54:54,14.98342407,0.0002481,70.0023,160.8331,251.8349,108.254,0.00021244,2.444e-05,0.0,0 STARLINK-3103,1 49177U 21082AZ  23059.57979709  .00002444  00000-0  21244-3 0  9993,2 49177  70.0023 160.8331 0002481 251.8349 108.2540 14.98342407 82621,6950.155,96.106,573.744,570.295,0.0
49177.0,STARLINK-3103,PAYLOAD,2023-03-01 05:56:16,14.98323984,0.0001943,70.0031,159.1535,267.1268,92.9668,-3.5756e-06,-1.35e-06,0.0,0 STARLINK-3103,1 49177U 21082AZ  23060.24740936 -.00000135  00000-0 -35756-5 0  9999,2 49177  70.0031 159.1535 0001943 267.1268  92.9668 14.98323984 82729,6950.211,96.107,573.427,570.726,0.0
49177.0,STARLINK-3103,PAYLOAD,2023-03-01 10:44:41,14.98302818,0.0002799,70.002,158.6453,262.9782,97.1059,-0.00052847,-6.388e-05,0.0,0 STARLINK-3103,1 49177U 21082AZ  23060.44769676 -.00006388  00000-0 -52847-3 0  9997,2 49177  70.0020 158.6453 0002799 262.9782  97.1059 14.98302818 82751,6950.277,96.109,574.087,570.197,0.0
49177.0,STARLINK-3103,PAYLOAD,2023-03-01 13:56:57,14.9830317,0.0002827,70.0017,158.3086,265.9742,94.1094,-0.00048264,-5.843e-05,0.0,0 STARLINK-3103,1 49177U 21082AZ  23060.58121860 -.00005843  00000-0 -48264-3 0  9992,2 49177  70.0017 158.3086 0002827 265.9742  94.1094 14.98303170 82777,6950.276,96.109,574.106,570.176,0.0
49177.0,STARLINK-3103,PAYLOAD,2023-03-01 23:33:46,14.98304329,0.0002795,70.0022,157.2997,263.9275,96.1566,-0.00014338,-1.802e-05,0.0,0 STARLINK-3103,1 49177U 21082AZ  23060.98178408 -.00001802  00000-0 -14338-3 0  9992,2 49177  70.0022 157.2997 0002795 263.9275  96.1566 14.98304329 82835,6950.272,96.109,574.08,570.195,0.0
49177.0,STARLINK-3103,PAYLOAD,2023-03-02 13:58:58,14.98338851,0.0003349,70.0005,155.7828,275.8332,84.2445,0.0019491,0.00023246,0.0,0 STARLINK-3103,1 49177U 21082AZ  23061.58262724  .00023246  00000-0  19491-2 0  9992,2 49177  70.0005 155.7828 0003349 275.8332  84.2445 14.98338851 82925,6950.166,96.106,574.358,569.703,0.0
49177.0,STARLINK-3103,PAYLOAD,2023-03-03 09:12:34,14.98374239,0.0003364,70.0007,153.7627,275.7196,84.3579,0.0022014,0.00026303,0.0,0 STARLINK-3103,1 49177U 21082AZ  23062.38373447  .00026303  00000-0  22014-2 0  9998,2 49177  70.0007 153.7627 0003364 275.7196  84.3579 14.98374239 83049,6950.056,96.104,574.259,569.583,0.0
49177.0,STARLINK-3103,PAYLOAD,2023-03-03 12:24:50,14.98380266,0.0003361,70.0007,153.4259,276.2425,83.8352,0.0022241,0.00026581,0.0,0 STARLINK-3103,1 49177U 21082AZ  23062.51725030  .00026581  00000-0  22241-2 0  9992,2 49177  70.0007 153.4259 0003361 276.2425  83.8352 14.98380266 83067,6950.037,96.104,574.238,569.567,0.0
49177.0,STARLINK-3103,PAYLOAD,2023-03-04 06:02:18,14.98362895,0.0002565,70.0013,151.5749,263.5851,96.5016,0.0017556,0.00020935,0.0,0 STARLINK-3103,1 49177U 21082AZ  23063.25160454  .00020935  00000-0  17556-2 0  9997,2 49177  70.0013 151.5749 0002565 263.5851  96.5016 14.98362895 83172,6950.091,96.105,573.739,570.173,0.0
49177.0,STARLINK-3103,PAYLOAD,2023-03-04 10:50:42,14.98335862,0.0003425,70.001,151.0696,272.4748,87.6019,0.001625,0.00019353,0.0,0 STARLINK-3103,1 49177U 21082AZ  23063.45188470  .00019353  00000-0  16250-2 0  9999,2 49177  70.0010 151.0696 0003425 272.4748  87.6019 14.98335862 83207,6950.175,96.107,574.42,569.659,0.0
49177.0,STARLINK-3103,PAYLOAD,2023-03-04 12:26:50,14.9833475,0.0003207,70.0014,150.9015,266.5507,93.5285,0.0020165,0.00024054,0.0,0 STARLINK-3103,1 49177U 21082AZ  23063.51864447  .00024054  00000-0  20165-2 0  9995,2 49177  70.0014 150.9015 0003207 266.5507  93.5285 14.98334750 83216,6950.178,96.107,574.272,569.814,0.0
49177.0,STARLINK-3103,PAYLOAD,2023-03-04 15:39:07,14.98344646,0.0003798,70.0012,150.5649,287.9379,72.1366,0.0017982,0.00021438,0.0,0 STARLINK-3103,1 49177U 21082AZ  23063.65216491  .00021438  00000-0  17982-2 0  9996,2 49177  70.0012 150.5649 0003798 287.9379  72.1366 14.98344646 83232,6950.148,96.106,574.652,569.373,0.0
49177.0,STARLINK-3103,PAYLOAD,2023-03-05 04:28:11,14.98335788,0.0002373,70.0036,149.2214,256.4342,103.6553,0.00086483,0.00010242,0.0,0 STARLINK-3103,1 49177U 21082AZ  23064.18624634  .00010242  00000-0  86483-3 0  9991,2 49177  70.0036 149.2214 0002373 256.4342 103.6553 14.98335788 83314,6950.175,96.107,573.689,570.391,0.0
49177.0,STARLINK-3103,PAYLOAD,2023-03-05 07:40:27,14.98327928,0.000292,70.0026,148.8832,250.7757,109.3086,-2.6911e-05,-4.14e-06,0.0,0 STARLINK-3103,1 49177U 21082AZ  23064.31976611 -.00000414  00000-0 -26911-4 0  9994,2 49177  70.0026 148.8832 0002920 250.7757 109.3086 14.98327928 83332,6950.199,96.107,574.094,570.035,0.0
49177.0,STARLINK-3103,PAYLOAD,2023-03-05 09:16:35,14.98330794,0.0002976,70.0018,148.7146,251.6362,108.4473,-0.00022148,-2.735e-05,0.0,0 STARLINK-3103,1 49177U 21082AZ  23064.38652604 -.00002735  00000-0 -22148-3 0  9999,2 49177  70.0018 148.7146 0002976 251.6362 108.4473 14.98330794 83349,6950.19,96.107,574.124,569.987,0.0
49177.0,STARLINK-3103,PAYLOAD,2023-03-06 06:06:20,14.98346636,0.0002556,70.0023,146.5254,242.1704,117.9197,-0.00011071,-1.414e-05,0.0,0 STARLINK-3103,1 49177U 21082AZ  23065.25439838 -.00001414  00000-0 -11071-3 0  9994,2 49177  70.0023 146.5254 0002556 242.1704 117.9197 14.98346636 83474,6950.141,96.106,573.783,570.23,0.0
49177.0,STARLINK-3103,PAYLOAD,2023-03-06 10:54:44,14.98335909,0.0002685,70.0021,146.0206,243.6267,116.4617,0.00033276,3.88e-05,0.0,0 STARLINK-3103,1 49177U 21082AZ  23065.45468336  .00003880  00000-0  33276-3 0  9999,2 49177  70.0021 146.0206 0002685 243.6267 116.4617 14.98335909 83503,6950.175,96.107,573.906,570.173,0.0
49177.0,STARLINK-3103,PAYLOAD,2023-03-06 22:07:40,14.98341071,0.0003064,70.0008,144.8419,276.5117,83.5694,0.00018504,2.116e-05,0.0,0 STARLINK-3103,1 49177U 21082AZ  23065.92200046  .00002116  00000-0  18504-3 0  9991,2 49177  70.0008 144.8419 0003064 276.5117  83.5694 14.98341071 83574,6950.159,96.106,574.153,569.894,0.0
49177.0,STARLINK-3103,PAYLOAD,2023-03-07 04:32:13,14.98331691,0.0002866,70.0015,144.1715,264.0028,96.0805,0.0002088,2.399e-05,0.0,0 STARLINK-3103,1 49177U 21082AZ  23066.18904558  .00002399  00000-0  20880-3 0  9992,2 49177  70.0015 144.1715 0002866 264.0028  96.0805 14.98331691 83611,6950.188,96.107,574.045,570.061,0.0
49177.0,STARLINK-3103,PAYLOAD,2023-03-07 15:45:10,14.98327037,0.0003031,69.9993,142.9905,264.9101,95.1712,6.001e-05,6.23e-06,0.0,0 STARLINK-3103,1 49177U 21082AZ  23066.65637112  .00000623  00000-0  60010-4 0  9991,2 49177  69.9993 142.9905 0003031 264.9101  95.1712 14.98327037 83689,6950.202,96.107,574.174,569.96,0.0
49177.0,STARLINK-3103,PAYLOAD,2023-03-08 14:11:03,14.98332318,0.0003003,69.999,140.6329,256.6849,103.3976,1.4717e-05,8.3e-07,0.0,0 STARLINK-3103,1 49177U 21082AZ  23067.59100797  .00000083  00000-0  14717-4 0  9992,2 49177  69.9990 140.6329 0003003 256.6849 103.3976 14.98332318 83825,6950.186,96.107,574.138,569.964,0.0
49177.0,STARLINK-3103,PAYLOAD,2023-03-08 22:11:42,14.98339309,0.0003202,69.998,139.7901,272.9636,87.1157,0.00010407,1.149e-05,0.0,0 STARLINK-3103,1 49177U 21082AZ  23067.92480234  .00001149  00000-0  10407-3 0  9991,2 49177  69.9980 139.7901 0003202 272.9636  87.1157 14.98339309 83877,6950.164,96.106,574.255,569.804,0.0
49177.0,STARLINK-3103,PAYLOAD,2023-03-09 06:12:24,14.98318546,0.0003373,69.998,138.9482,270.0385,90.0387,0.00025014,2.892e-05,0.0,0 STARLINK-3103,1 49177U 21082AZ  23068.25861115  .00002892  00000-0  25014-3 0  9995,2 49177  69.9980 138.9482 0003373 270.0385  90.0387 14.98318546 83925,6950.228,96.108,574.438,569.749,0.0
49177.0,STARLINK-3103,PAYLOAD,2023-03-09 12:36:55,14.9833006,0.000324,69.9992,138.2751,268.8083,91.2705,0.00029034,3.373e-05,0.0,0 STARLINK-3103,1 49177U 21082AZ  23068.52564422  .00003373  00000-0  29034-3 0  9997,2 49177  69.9992 138.2751 0003240 268.8083  91.2705 14.98330060 83969,6950.193,96.107,574.31,569.806,0.0
49177.0,STARLINK-3103,PAYLOAD,2023-03-10 11:02:47,14.98336195,0.0002502,69.9992,135.9186,255.0939,104.9943,0.00024678,2.853e-05,0.0,0 STARLINK-3103,1 49177U 21082AZ  23069.46027679  .00002853  00000-0  24678-3 0  9990,2 49177  69.9992 135.9186 0002502 255.0939 104.9943 14.98336195 84101,6950.174,96.107,573.778,570.3,0.0
49177.0,STARLINK-3103,PAYLOAD,2023-03-11 03:04:09,14.9832471,0.0002847,69.9998,134.2373,270.137,89.9463,2.1622e-05,1.65e-06,0.0,0 STARLINK-3103,1 49177U 21082AZ  23070.12788875  .00000165  00000-0  21622-4 0  9998,2 49177  69.9998 134.2373 0002847 270.1370  89.9463 14.98324710 84206,6950.209,96.107,574.053,570.096,0.0
49177.0,STARLINK-3103,PAYLOAD,2023-03-11 12:40:58,14.9832153,0.0002637,69.9998,133.2273,259.8928,100.1933,-0.00012566,-1.592e-05,0.0,0 STARLINK-3103,1 49177U 21082AZ  23070.52845571 -.00001592  00000-0 -12566-3 0  9992,2 49177  69.9998 133.2273 0002637 259.8928 100.1933 14.98321530 84265,6950.219,96.108,573.917,570.251,0.0
49177.0,STARLINK-3103,PAYLOAD,2023-03-11 14:17:06,14.98327071,0.0002804,69.9994,133.0583,259.6188,100.4655,-0.00011473,-1.462e-05,0.0,0 STARLINK-3103,1 49177U 21082AZ  23070.59521167 -.00001462  00000-0 -11473-3 0  9993,2 49177  69.9994 133.0583 0002804 259.6188 100.4655 14.98327071 84276,6950.202,96.107,574.016,570.118,0.0
